ONEWEB-0207             
1 48242U 21031AJ  25099.45905908  .00000124  00000+0  29881-3 0  9999
2 48242  87.9095  15.9440 0001861  86.1441 273.9902 13.14503307191317
ONEWEB-0208             
1 48243U 21031AK  25099.82140121  .00000191  00000+0  48079-3 0  9993
2 48243  87.9093  15.8863 0001682  78.0648 282.0670 13.14506056191377
ONEWEB-0200             
1 48244U 21031AL  25099.78493171 -.00000166  00000+0 -48205-3 0  9990
2 48244  87.9094  15.8864 0001745  78.8905 281.2421 13.14501083191295
ONEWEB-0217             
1 48245U 21031AM  25099.80078883 -.00000191  00000+0 -54911-3 0  9992
2 48245  87.9092  15.8679 0001560  74.0504 286.0798 13.14504070191240
ONEWEB-0211             
1 48767U 21045A   25099.92983309  .00000037  00000+0  64607-4 0  9998
2 48767  87.9107 345.4962 0001710  68.7888 291.3425 13.16075653187451
ONEWEB-0223             
1 48768U 21045B   25099.97072000  .00000213  00000+0  53209-3 0  9992
2 48768  87.9112 345.5135 0001771  64.0745 296.0567 13.15548709187443
ONEWEB-0230             
1 48769U 21045C   25099.94219047 -.00001040  00000+0 -27975-2 0  9995
2 48769  87.9091 345.5738 0002074  82.6359 277.5007 13.15552949187706
ONEWEB-0237             
1 48770U 21045D   25099.93110214 -.00000024  00000+0 -96965-4 0  9990
2 48770  87.9115 345.5370 0001849  69.4662 290.6667 13.15546710187422
